NORAD_CAT_ID,OBJECT_NAME,OBJECT_TYPE,EPOCH,MEAN_MOTION,ECCENTRICITY,INCLINATION,RA_OF_ASC_NODE,ARG_OF_PERICENTER,MEAN_ANOMALY,BSTAR,MEAN_MOTION_DOT,MEAN_MOTION_DDOT,TLE_LINE0,TLE_LINE1,TLE_LINE2,SEMIMAJOR_AXIS,PERIOD,APOGEE,PERIGEE,DECAYED
54093.0,STARLINK-5213,PAYLOAD,2024-06-05 19:08:07,15.0883698,0.00011,53.2149,335.4351,77.81,282.3015,2.5685e-05,1.21e-06,0.0,0 STARLINK-5213,1 54093U 22136AU  24157.79730772  .00000121  00000-0  25685-4 0  9990,2 54093  53.2149 335.4351 0001100  77.8100 282.3015 15.08836980 90554,6917.89,95.438,540.516,538.994,0.0
54093.0,STARLINK-5213,PAYLOAD,2024-06-06 04:40:25,15.08844202,0.0001225,53.2161,333.6505,74.7972,285.3155,7.6991e-05,9.38e-06,0.0,0 STARLINK-5213,1 54093U 22136AU  24158.19474218  .00000938  00000-0  76991-4 0  9997,2 54093  53.2161 333.6505 0001225  74.7972 285.3155 15.08844202 90611,6917.868,95.437,540.58,538.885,0.0
54093.0,STARLINK-5213,PAYLOAD,2024-06-06 20:34:17,15.0884325,0.0001366,53.2154,330.6759,72.315,287.7991,8.0159e-05,9.88e-06,0.0,0 STARLINK-5213,1 54093U 22136AU  24158.85714364  .00000988  00000-0  80159-4 0  9995,2 54093  53.2154 330.6759 0001366  72.3150 287.7991 15.08843250 90244,6917.87,95.437,540.68,538.79,0.0
54093.0,STARLINK-5213,PAYLOAD,2024-06-08 04:22:00,15.08837857,0.0001491,53.2197,324.7333,89.6591,270.4572,4.4859e-05,4.26e-06,0.0,0 STARLINK-5213,1 54093U 22136AU  24160.18195088  .00000426  00000-0  44859-4 0  9994,2 54093  53.2197 324.7333 0001491  89.6591 270.4572 15.08837857 90916,6917.887,95.438,540.783,538.72,0.0
54093.0,STARLINK-5213,PAYLOAD,2024-06-08 18:40:27,15.08854972,0.0001291,53.2187,322.0564,87.0082,273.1058,0.00013947,1.933e-05,0.0,0 STARLINK-5213,1 54093U 22136AU  24160.77809348  .00001933  00000-0  13947-3 0  9997,2 54093  53.2187 322.0564 0001291  87.0082 273.1058 15.08854972 91004,6917.835,95.437,540.593,538.807,0.0
54093.0,STARLINK-5213,PAYLOAD,2024-06-09 04:12:47,15.08836686,0.0001799,53.2148,320.2694,103.7585,256.3608,8.7564e-05,1.106e-05,0.0,0 STARLINK-5213,1 54093U 22136AU  24161.17554929  .00001106  00000-0  87564-4 0  9993,2 54093  53.2148 320.2694 0001799 103.7585 256.3608 15.08836686 91064,6917.891,95.438,541.0,538.511,0.0
54093.0,STARLINK-5213,PAYLOAD,2024-06-09 21:42:01,15.08854619,0.0001218,53.2174,316.9996,109.1914,250.921,8.6931e-05,1.096e-05,0.0,0 STARLINK-5213,1 54093U 22136AU  24161.90418118  .00001096  00000-0  86931-4 0  9998,2 54093  53.2174 316.9996 0001218 109.1914 250.9210 15.08854619 90707,6917.836,95.437,540.543,538.858,0.0
54093.0,STARLINK-5213,PAYLOAD,2024-06-10 13:35:51,15.08881751,0.0001368,53.2163,314.0254,110.7865,249.3274,0.00057894,8.948e-05,0.0,0 STARLINK-5213,1 54093U 22136AU  24162.56656555  .00008948  00000-0  57894-3 0  9998,2 54093  53.2163 314.0254 0001368 110.7865 249.3274 15.08881751 91272,6917.753,95.435,540.564,538.671,0.0
54093.0,STARLINK-5213,PAYLOAD,2024-06-10 16:46:35,15.08888328,7.77e-05,53.2178,313.4316,102.6521,257.4558,0.00042839,6.546e-05,0.0,0 STARLINK-5213,1 54093U 22136AU  24162.69902504  .00006546  00000-0  42839-3 0  9995,2 54093  53.2178 313.4316 0000777 102.6521 257.4558 15.08888328 91296,6917.733,95.434,540.135,539.06,0.0
54093.0,STARLINK-5213,PAYLOAD,2024-06-11 13:26:39,15.08840312,0.0001327,53.2183,309.5662,112.4627,247.6506,0.0001658,2.352e-05,0.0,0 STARLINK-5213,1 54093U 22136AU  24163.56018026  .00002352  00000-0  16580-3 0  9994,2 54093  53.2183 309.5662 0001327 112.4627 247.6506 15.08840312 90957,6917.879,95.438,540.662,538.826,0.0
54093.0,STARLINK-5213,PAYLOAD,2024-06-11 18:12:49,15.08837336,0.0001007,53.2172,308.6744,75.9531,284.1573,-7.6927e-05,-1.512e-05,0.0,0 STARLINK-5213,1 54093U 22136AU  24163.75890171 -.00001512  00000-0 -76927-4 0  9995,2 54093  53.2172 308.6744 0001007  75.9531 284.1573 15.08837336 91456,6917.889,95.438,540.45,539.057,0.0
54093.0,STARLINK-5213,PAYLOAD,2024-06-12 16:28:13,15.08846368,9.54e-05,53.2187,304.5141,90.8364,269.2738,-0.00033532,-5.621e-05,0.0,0 STARLINK-5213,1 54093U 22136AU  24164.68626908 -.00005621  00000-0 -33532-3 0  9992,2 54093  53.2187 304.5141 0000954  90.8364 269.2738 15.08846368 91124,6917.861,95.437,540.386,539.066,0.0
54093.0,STARLINK-5213,PAYLOAD,2024-06-13 09:57:28,15.08828894,0.0001077,53.2182,301.2411,52.3192,307.7897,0.00015242,2.138e-05,0.0,0 STARLINK-5213,1 54093U 22136AU  24165.41491487  .00002138  00000-0  15242-3 0  9992,2 54093  53.2182 301.2411 0001077  52.3192 307.7897 15.08828894 91704,6917.914,95.438,540.524,539.034,0.0
54093.0,STARLINK-5213,PAYLOAD,2024-06-13 14:43:37,15.08833999,0.0001001,53.2183,300.3504,66.6205,293.4892,0.00021068,3.066e-05,0.0,0 STARLINK-5213,1 54093U 22136AU  24165.61363155  .00003066  00000-0  21068-3 0  9998,2 54093  53.2183 300.3504 0001001  66.6205 293.4892 15.08833999 91267,6917.899,95.438,540.456,539.071,0.0
54093.0,STARLINK-5213,PAYLOAD,2024-06-13 16:19:00,15.08839481,0.0001073,53.2174,300.0533,58.1875,301.9222,0.00029625,4.43e-05,0.0,0 STARLINK-5213,1 54093U 22136AU  24165.67987178  .00004430  00000-0  29625-3 0  9994,2 54093  53.2174 300.0533 0001073  58.1875 301.9222 15.08839481 91279,6917.882,95.438,540.489,539.005,0.0
54093.0,STARLINK-5213,PAYLOAD,2024-06-14 14:34:25,15.08838493,9.51e-05,53.217,295.8909,75.836,284.2738,0.00021535,3.141e-05,0.0,0 STARLINK-5213,1 54093U 22136AU  24166.60723653  .00003141  00000-0  21535-3 0  9994,2 54093  53.2170 295.8909 0000951  75.8360 284.2738 15.08838493 91415,6917.885,95.438,540.408,539.092,0.0
54093.0,STARLINK-5213,PAYLOAD,2024-06-14 17:45:11,15.08846506,0.0001171,53.2181,295.2927,60.6851,299.4258,0.00025454,3.766e-05,0.0,0 STARLINK-5213,1 54093U 22136AU  24166.73971307  .00003766  00000-0  25454-3 0  9996,2 54093  53.2181 295.2927 0001171  60.6851 299.4258 15.08846506 91434,6917.861,95.437,540.536,538.915,0.0
54093.0,STARLINK-5213,PAYLOAD,2024-06-15 14:25:11,15.08850777,0.0001005,53.2176,291.4242,75.5128,284.5976,0.00014699,2.053e-05,0.0,0 STARLINK-5213,1 54093U 22136AU  24167.60082828  .00002053  00000-0  14699-3 0  9991,2 54093  53.2176 291.4242 0001005  75.5128 284.5976 15.08850777 91565,6917.847,95.437,540.408,539.017,0.0
54093.0,STARLINK-5213,PAYLOAD,2024-06-15 17:35:57,15.08856472,0.000102,53.2174,290.8286,76.2207,283.8898,0.0002374,3.494e-05,0.0,0 STARLINK-5213,1 54093U 22136AU  24167.73330506  .00003494  00000-0  23740-3 0  9991,2 54093  53.2174 290.8286 0001020  76.2207 283.8898 15.08856472 91582,6917.83,95.437,540.401,538.989,0.0
54093.0,STARLINK-5213,PAYLOAD,2024-06-16 14:15:58,15.08845361,0.0001138,53.2172,286.9661,85.6012,274.511,0.00014683,2.05e-05,0.0,0 STARLINK-5213,1 54093U 22136AU  24168.59443011  .00002050  00000-0  14683-3 0  9995,2 54093  53.2172 286.9661 0001138  85.6012 274.5110 15.08845361 91715,6917.864,95.437,540.516,538.942,0.0
54093.0,STARLINK-5213,PAYLOAD,2024-06-17 14:06:46,15.08838341,0.0001166,53.2162,282.5056,94.231,265.8816,3.9172e-05,3.36e-06,0.0,0 STARLINK-5213,1 54093U 22136AU  24169.58803446  .00000336  00000-0  39172-4 0  9993,2 54093  53.2162 282.5056 0001166  94.2310 265.8816 15.08838341 91864,6917.885,95.438,540.557,538.944,0.0
54093.0,STARLINK-5213,PAYLOAD,2024-06-18 13:57:33,15.08843492,0.0001059,53.2171,278.0457,95.3482,264.7631,0.00019943,2.888e-05,0.0,0 STARLINK-5213,1 54093U 22136AU  24170.58163416  .00002888  00000-0  19943-3 0  9998,2 54093  53.2171 278.0457 0001059  95.3482 264.7631 15.08843492 92487,6917.87,95.437,540.467,539.002,0.0
54093.0,STARLINK-5213,PAYLOAD,2024-06-19 13:48:20,15.08836,0.0001127,53.2169,273.5869,93.3069,266.8052,8.9147e-05,1.131e-05,0.0,0 STARLINK-5213,1 54093U 22136AU  24171.57524046  .00001131  00000-0  89147-4 0  9992,2 54093  53.2169 273.5869 0001127  93.3069 266.8052 15.08836000 92630,6917.893,95.438,540.537,538.978,0.0
54093.0,STARLINK-5213,PAYLOAD,2024-06-20 12:03:44,15.08842891,0.0001243,53.2188,269.4266,102.4815,257.6316,9.7693e-05,1.267e-05,0.0,0 STARLINK-5213,1 54093U 22136AU  24172.50259824  .00001267  00000-0  97693-4 0  9990,2 54093  53.2188 269.4266 0001243 102.4815 257.6316 15.08842891 92306,6917.872,95.437,540.596,538.877,0.0
54093.0,STARLINK-5213,PAYLOAD,2024-06-21 05:32:59,15.08839819,0.0001299,53.2191,266.1561,100.7193,259.3945,0.00012721,1.737e-05,0.0,0 STARLINK-5213,1 54093U 22136AU  24173.23124008  .00001737  00000-0  12721-3 0  9996,2 54093  53.2191 266.1561 0001299 100.7193 259.3945 15.08839819 92889,6917.881,95.438,540.645,538.847,0.0
54093.0,STARLINK-5213,PAYLOAD,2024-06-21 11:54:32,15.08835292,0.0001273,53.2188,264.9654,96.5669,263.5468,7.2892e-05,8.72e-06,0.0,0 STARLINK-5213,1 54093U 22136AU  24173.49620533  .00000872  00000-0  72892-4 0  9993,2 54093  53.2188 264.9654 0001273  96.5669 263.5468 15.08835292 92457,6917.895,95.438,540.64,538.879,0.0
54093.0,STARLINK-5213,PAYLOAD,2024-06-22 13:20:42,15.08837949,0.0001151,53.2176,260.2057,88.8467,271.2657,7.4236e-06,-1.7e-06,0.0,0 STARLINK-5213,1 54093U 22136AU  24174.55604850 -.00000170  00000-0  74236-5 0  9992,2 54093  53.2176 260.2057 0001151  88.8467 271.2657 15.08837949 93082,6917.887,95.438,540.548,538.955,0.0
54093.0,STARLINK-5213,PAYLOAD,2024-06-23 13:11:28,15.08847617,0.0001151,53.2171,255.745,85.7201,274.3923,0.00017335,2.473e-05,0.0,0 STARLINK-5213,1 54093U 22136AU  24175.54963836  .00002473  00000-0  17335-3 0  9996,2 54093  53.2171 255.7450 0001151  85.7201 274.3923 15.08847617 93235,6917.857,95.437,540.518,538.926,0.0
54093.0,STARLINK-5213,PAYLOAD,2024-06-24 13:02:15,15.08853061,0.0001268,53.217,251.2853,79.7366,280.3769,0.00017213,2.454e-05,0.0,0 STARLINK-5213,1 54093U 22136AU  24176.54323351  .00002454  00000-0  17213-3 0  9993,2 54093  53.2170 251.2853 0001268  79.7366 280.3769 15.08853061 92915,6917.84,95.437,540.583,538.828,0.0
54093.0,STARLINK-5213,PAYLOAD,2024-06-25 11:17:40,15.08843089,0.0001459,53.2177,247.123,91.478,268.6379,-4.9861e-05,-1.081e-05,0.0,0 STARLINK-5213,1 54093U 22136AU  24177.47060225 -.00001081  00000-0 -49861-4 0  9996,2 54093  53.2177 247.1230 0001459  91.4780 268.6379 15.08843089 93521,6917.871,95.437,540.745,538.727,0.0
